ONEWEB-0721             
1 56725U 23068R   26197.19298966  .00000040  00000+0  62397-4 0  9993
2 56725  86.6742  76.2560 0001749  79.2082 280.9248 13.22471528161775
ONEWEB-0015             
1 61594U 24188A   26196.99704573 -.00000297  00000+0 -87360-3 0  9992
2 61594  87.8882  15.3554 0001497  75.5499 284.5795 13.11418348 88236
ONEWEB-0687             
1 61595U 24188B   26197.01058566  .00000005  00000+0 -20837-4 0  9994
2 61595  87.9141   0.1407 0001944  78.6311 281.5039 13.17650419 89691
ONEWEB-0688             
1 61596U 24188C   26196.96332277  .00000001  00000+0 -30191-4 0  9992
2 61596  87.9141   0.1501 0001128  52.8262 307.2972 13.17650809 89684
ONEWEB-0689             
1 61597U 24188D   26197.25985433  .00000449  00000+0  12317-2 0  9997
2 61597  87.8896  15.2648 0002095  86.0526 274.0841 13.11415621 88260
ONEWEB-0690             
1 61598U 24188E   26197.04113787  .00000098  00000+0  23965-3 0  9992
2 61598  87.8892  15.3189 0001607 110.9221 249.2079 13.11414793 88418
ONEWEB-0691             
1 61599U 24188F   26197.03605582  .00000219  00000+0  58254-3 0  9995
2 61599  87.8903  15.2313 0001683  80.6732 279.4586 13.11414053 88264
ONEWEB-0692             
1 61600U 24188G   26197.20897521 -.00000445  00000+0 -12912-2 0  9996
2 61600  87.8882  15.3046 0002632  94.8068 265.3361 13.11416991 88270
ONEWEB-0693             
1 61601U 24188H   26196.97514982  .00000038  00000+0  64960-4 0  9995
2 61601  87.9138   0.1664 0001446 117.8895 242.2383 13.17650020 89672
ONEWEB-0695             
1 61602U 24188J   26197.03266451  .00000444  00000+0  12175-2 0  9999
2 61602  87.8882  15.3319 0002352  87.7262 272.4135 13.11415402 88242
ONEWEB-0697             
1 61603U 24188K   26197.06486575 -.00000521  00000+0 -15058-2 0  9995
2 61603  87.8885  15.3159 0002568  97.0216 263.1204 13.11417561 88231
ONEWEB-0698             
1 61604U 24188L   26197.04283416  .00000022  00000+0  26664-4 0  9994
2 61604  87.8881  15.3338 0002517 117.3480 242.7905 13.11414863 88255
ONEWEB-0699             
1 61605U 24188M   26197.23110974  .00000393  00000+0  10888-2 0  9994
2 61605  87.8814  30.4775 0002459  97.6432 262.4975 13.10370743 87114
ONEWEB-0700             
1 61606U 24188N   26197.23279215  .00000405  00000+0  11248-2 0  9994
2 61606  87.8831  30.3909 0002469  95.9411 264.1998 13.10368935 87104
ONEWEB-0701             
1 61607U 24188P   26197.24976019 -.00000469  00000+0 -13796-2 0  9994
2 61607  87.8818  30.4743 0002556  99.3791 260.7626 13.10370486 87118
ONEWEB-0702             
1 61608U 24188Q   26197.01232190  .00000311  00000+0  84190-3 0  9996
2 61608  87.8903  15.2512 0002891  93.3584 266.7875 13.11418164 88261
ONEWEB-0704             
1 61609U 24188R   26197.23788368  .00000015  00000+0  56784-5 0  9995
2 61609  87.8819  30.4663 0002866  88.4803 271.6653 13.10369236 87098
ONEWEB-0705             
1 61610U 24188S   26197.24297794 -.00000257  00000+0 -77294-3 0  9993
2 61610  87.8820  30.4715 0002663  73.1618 286.9801 13.10369178 79269
ONEWEB-0706             
1 61611U 24188T   26197.07499933 -.00002920  00000+0 -84033-2 0  9991
2 61611  87.8817  30.5085 0002508  87.8626 272.2789 13.10388208 87162
ONEWEB-0707             
1 61612U 24188U   26197.08177148  .00000185  00000+0  49334-3 0  9999
2 61612  87.8820  30.5025 0002428  87.6253 272.5152 13.10368522 87104
ONEWEB-0708             
1 61613U 24188V   26197.10042546 -.00000577  00000+0 -16879-2 0  9990
2 61613  87.8814  30.5150 0001991  72.0242 288.1102 13.10370584 87083
