OBJECT_NAME,OBJECT_ID,EPOCH,MEAN_MOTION,ECCENTRICITY,INCLINATION,RA_OF_ASC_NODE,ARG_OF_PERICENTER,MEAN_ANOMALY,EPHEMERIS_TYPE,CLASSIFICATION_TYPE,NORAD_CAT_ID,ELEMENT_SET_NO,REV_AT_EPOCH,BSTAR,MEAN_MOTION_DOT,MEAN_MOTION_DDOT
ONEWEB-0721,2023-068R,2026-07-16T04:37:54.306624,13.22471528,.0001749,86.6742,76.2560,79.2082,280.9248,0,U,56725,999,16177,.62397246E-4,.4E-6,0
ONEWEB-0015,2024-188A,2026-07-15T23:55:44.751072,13.11418348,.00014978,87.8882,15.3554,75.5499,284.5795,0,U,61594,999,8823,-.87359848E-3,-.297E-5,0
ONEWEB-0687,2024-188B,2026-07-16T00:15:14.601024,13.17650419,.00019448,87.9141,0.1407,78.6311,281.5039,0,U,61595,999,8969,-.20836862E-4,.5E-7,0
ONEWEB-0688,2024-188C,2026-07-15T23:07:11.087328,13.17650809,.00011287,87.9141,0.1501,52.8262,307.2972,0,U,61596,999,8968,-.30191007E-4,.1E-7,0
ONEWEB-0689,2024-188D,2026-07-16T06:14:11.414112,13.11415621,.00020959,87.8896,15.2648,86.0526,274.0841,0,U,61597,999,8826,.12317495E-2,.449E-5,0
ONEWEB-0690,2024-188E,2026-07-16T00:59:14.311968,13.11414793,.00016076,87.8892,15.3189,110.9221,249.2079,0,U,61598,999,8841,.23964874E-3,.98E-6,0
ONEWEB-0691,2024-188F,2026-07-16T00:51:55.222848,13.11414053,.00016832,87.8903,15.2313,80.6732,279.4586,0,U,61599,999,8826,.5825444E-3,.219E-5,0
ONEWEB-0692,2024-188G,2026-07-16T05:00:55.458144,13.11416991,.00026323,87.8882,15.3046,94.8068,265.3361,0,U,61600,999,8827,-.12912032E-2,-.445E-5,0
ONEWEB-0693,2024-188H,2026-07-15T23:24:12.944448,13.17650020,.00014466,87.9138,0.1664,117.8895,242.2383,0,U,61601,999,8967,.64959603E-4,.38E-6,0
ONEWEB-0695,2024-188J,2026-07-16T00:47:02.213664,13.11415402,.00023522,87.8882,15.3319,87.7262,272.4135,0,U,61602,999,8824,.12174659E-2,.444E-5,0
ONEWEB-0697,2024-188K,2026-07-16T01:33:24.400800,13.11417561,.00025686,87.8885,15.3159,97.0216,263.1204,0,U,61603,999,8823,-.15058445E-2,-.521E-5,0
ONEWEB-0698,2024-188L,2026-07-16T01:01:40.871424,13.11414863,.00025171,87.8881,15.3338,117.3480,242.7905,0,U,61604,999,8825,.2666366E-4,.22E-6,0
ONEWEB-0699,2024-188M,2026-07-16T05:32:47.881536,13.10370743,.00024595,87.8814,30.4775,97.6432,262.4975,0,U,61605,999,8711,.10887755E-2,.393E-5,0
ONEWEB-0700,2024-188N,2026-07-16T05:35:13.241760,13.10368935,.00024694,87.8831,30.3909,95.9411,264.1998,0,U,61606,999,8710,.11248104E-2,.405E-5,0
ONEWEB-0701,2024-188P,2026-07-16T05:59:39.280416,13.10370486,.00025564,87.8818,30.4743,99.3791,260.7626,0,U,61607,999,8711,-.13796109E-2,-.469E-5,0
ONEWEB-0702,2024-188Q,2026-07-16T00:17:44.612160,13.11418164,.00028911,87.8903,15.2512,93.3584,266.7875,0,U,61608,999,8826,.84190202E-3,.311E-5,0
ONEWEB-0704,2024-188R,2026-07-16T05:42:33.149952,13.10369236,.0002866,87.8819,30.4663,88.4803,271.6653,0,U,61609,999,8709,.5678444E-5,.15E-6,0
ONEWEB-0705,2024-188S,2026-07-16T05:49:53.294016,13.10369178,.0002663,87.8820,30.4715,73.1618,286.9801,0,U,61610,999,7926,-.77293679E-3,-.257E-5,0
ONEWEB-0706,2024-188T,2026-07-16T01:47:59.942112,13.10388208,.00025084,87.8817,30.5085,87.8626,272.2789,0,U,61611,999,8716,-.84032908E-2,-.292E-4,0
ONEWEB-0707,2024-188U,2026-07-16T01:57:45.055872,13.10368522,.0002428,87.8820,30.5025,87.6253,272.5152,0,U,61612,999,8710,.49334307E-3,.185E-5,0
ONEWEB-0708,2024-188V,2026-07-16T02:24:36.759744,13.10370584,.00019914,87.8814,30.5150,72.0242,288.1102,0,U,61613,999,8708,-.16879351E-2,-.577E-5,0
